GLOBALSTAR M035         
1 25851U 99037A   25330.19400102 -.00000088  00000+0 -93650-3 0  9992
2 25851  51.9974  53.6709 0013392 241.4875 135.6459 11.04539868114168
GLOBALSTAR M032         
1 25852U 99037B   25330.09679284  .00000065  00000+0  42218-2 0  9997
2 25852  51.9945 227.9206 0013438  77.8406 282.3899 11.19072402152912
GLOBALSTAR M051         
1 25853U 99037C   25330.12803108 -.00000099  00000+0 -65836-3 0  9997
2 25853  51.9829  10.2279 0000500 146.3579 213.7263 11.42206145150893
GLOBALSTAR M030         
1 25854U 99037D   25329.90309455 -.00000081  00000+0 -12824-3 0  9998
2 25854  51.9839 166.5925 0003094   0.2935 359.7883 11.55109502168737
GLOBALSTAR M048         
1 25872U 99041A   25330.15801727 -.00000052  00000+0  48501-3 0  9999
2 25872  51.9388 311.4527 0013310 103.6469 355.7542 11.33860296143356
GLOBALSTAR M026         
1 25873U 99041B   25330.00790764 -.00000091  00000+0 -10019-2 0  9998
2 25873  51.9965 170.3401 0001997 141.2111  14.0529 11.06848138166403
GLOBALSTAR M043         
1 25874U 99041C   25329.59863807 -.00000059  00000+0  28127-3 0  9993
2 25874  51.9417  66.8521 0013470 222.6312 150.6379 11.25696462141050
GLOBALSTAR M028         
1 25875U 99041D   25329.99906314 -.00000086  00000+0  97227-4 0  9997
2 25875  51.9631  70.5649 0063685  63.4748 297.2624 12.50591751210422
